BRAC ONNESHA            
1 42823U 98067MX  18077.42960891  .00023646  00000-0  25288-3 0  9990
2 42823  51.6360 101.6586 0004000 201.8286 158.2539 15.63752982 39610
NIGERIAEDUSAT-1         
1 42824U 98067MY  18078.08322921  .00025548  00000-0  27382-3 0  9990
2 42824  51.6365  98.5332 0003973 204.1481 155.9328 15.63648257 39709
CORVUS BC2              
1 42846U 17042X   18077.72257855  .00000116  00000-0  16824-4 0  9995
2 42846  97.6046 343.8259 0010740 131.4624 228.7519 14.91774973 36886
CORVUS BC1              
1 42847U 17042Y   18077.77331595  .00000139  00000-0  19058-4 0  9992
2 42847  97.6045 343.9109 0010380 130.9677 229.2442 14.91874227 36887
SILU-1 (SILKROAD 1)     
1 42903U 17021F   18078.11690208  .00028168  00000-0  25285-3 0  9990
2 42903  42.7788 152.2142 0010085  20.4853  60.2331 15.67641948 35777
MIRATA                  
1 43015U 17073C   18077.37051413  .00001076  00000-0  91098-4 0  9993
2 43015  97.6994  12.2512 0258216 206.8929 151.8704 14.77881479 17721
ASTERIA                 
1 43020U 98067NH  18078.10487716  .00012852  00000-0  17988-3 0  9991
2 43020  51.6389 106.1986 0001896 176.6298 183.4707 15.57180473 18445
DELLINGR (RBLE)         
1 43021U 98067NJ  18078.07698437  .00009108  00000-0  13406-3 0  9993
2 43021  51.6385 106.7572 0001856 174.5527 185.5485 15.56232778 18437
TECHEDSAT 6             
1 43026U 98067NK  18078.18362140  .00227834  00000-0  17867-2 0  9991
2 43026  51.6333 100.6910 0003383  32.9541 327.1667 15.70301562 18423
OSIRIS-3U               
1 43027U 98067NL  18078.07146565  .00031529  00000-0  39255-3 0  9991
2 43027  51.6375 105.2190 0002274 145.6641 214.4499 15.59641241 18331
AEROCUBE 7B             
1 43042U 17071F   18077.38089084  .00004347  00000-0  12395-3 0  9993
2 43042  51.6383 123.7040 0005012 301.6550  58.3945 15.38205798 15622
AEROCUBE 7C             
1 43043U 17071G   18077.57512380  .00003865  00000-0  11133-3 0  9998
2 43043  51.6385 122.7528 0004987 302.6678  57.3825 15.38217127 15622
CHEFSAT                 
1 43044U 17071H   18077.55970387  .00005260  00000-0  14553-3 0  9992
2 43044  51.6385 122.6551 0005065 299.8648  60.1833 15.38689199 15623
ASGARDIA 1              
1 43049U 17071N   18078.21378594  .00004636  00000-0  13077-3 0  9999
2 43049  51.6385 119.5201 0002555 330.6812  29.4028 15.38380172 15716
ISARA                   
1 43050U 17071P   18077.55594733  .00005164  00000-0  14324-3 0  9995
2 43050  51.6383 122.6323 0002566 324.5953  35.4860 15.38649169 15610
FAUNA                   
1 43052U 17071R   18077.42954987  .00003758  00000-0  10769-3 0  9990
2 43052  51.6389 123.2879 0002417 323.5526  36.5293 15.38464581 15593
CORVUS BC3              
1 43118U 18004H   18077.35791240  .00001161  00000-0  53805-4 0  9998
2 43118  97.5442 139.7248 0012048  57.9134 302.3270 15.22073121  9895
MICROMAS-2A             
1 43131U 18004W   18077.47688982  .00002643  00000-0  11728-3 0  9997
2 43131  97.5445 139.8770 0011262  61.4117 298.8251 15.22431953  9914
GOMX4-B                 
1 43196U 18015E   18077.83388365 -.00000019  00000-0  21545-5 0  9998
2 43196  97.3313 208.7190 0021178 114.0472 246.2977 15.23444355  6779
GOMX4-A                 
1 43197U 18015F   18078.04339118  .00001362  00000-0  59617-4 0  9996
2 43197  97.3307 208.9197 0021008 113.3783 299.6260 15.23546386  6810
